{
  "type": "FeatureCollection",
  "features": [
    {
      "type": "Feature",
      "properties": {
        "norad_id": 30768,
        "name": "FENGYUN 1C DEB",
        "group": "fengyun-1c-debris",
        "lat": 44.66517630741922,
        "lon": 83.10025974685458,
        "alt_km": 711.160413855876,
        "timestamp": "2025-12-27T16:33:30.501200+00:00",
        "meta_object_name": "FENGYUN 1C DEB",
        "meta_object_id": "1999-025AUE",
        "meta_epoch": "2025-12-27T05:02:24.681696",
        "meta_mean_motion": 14.4811048,
        "meta_eccentricity": 0.00239694,
        "meta_inclination": 98.6166,
        "meta_ra_of_asc_node": 91.2305,
        "meta_arg_of_pericenter": 56.452,
        "meta_mean_anomaly": 8.4693,
        "meta_ephemeris_type": 0,
        "meta_classification_type": "U",
        "meta_norad_cat_id": 30768,
        "meta_element_set_no": 999,
        "meta_rev_at_epoch": 98080,
        "meta_bstar": 0.0024209333,
        "meta_mean_motion_dot": 9.008e-05,
        "meta_mean_motion_ddot": 0,
        "tle_line1": "1 30768U 99025AUE 25361.21000789  .00009008  00000+0  24209-2 0  9998",
        "tle_line2": "2 30768  98.6166  91.2305 0023969  56.4520   8.4693 14.48110480980809"
      },
      "geometry": {
        "type": "Point",
        "coordinates": [
          83.10025974685458,
          44.66517630741922
        ]
      }
    },
    {
      "type": "Feature",
      "properties": {
        "norad_id": 30770,
        "name": "FENGYUN 1C DEB",
        "group": "fengyun-1c-debris",
        "lat": -8.335152718340192,
        "lon": 8.585278451462973,
        "alt_km": 847.275735159641,
        "timestamp": "2025-12-27T16:33:30.501210+00:00",
        "meta_object_name": "FENGYUN 1C DEB",
        "meta_object_id": "1999-025AUG",
        "meta_epoch": "2025-12-27T12:07:38.432352",
        "meta_mean_motion": 14.15701106,
        "meta_eccentricity": 0.0012871,
        "meta_inclination": 98.6544,
        "meta_ra_of_asc_node": 7.1274,
        "meta_arg_of_pericenter": 240.5667,
        "meta_mean_anomaly": 250.5375,
        "meta_ephemeris_type": 0,
        "meta_classification_type": "U",
        "meta_norad_cat_id": 30770,
        "meta_element_set_no": 999,
        "meta_rev_at_epoch": 97116,
        "meta_bstar": 0.00032127,
        "meta_mean_motion_dot": 5.88e-06,
        "meta_mean_motion_ddot": 0,
        "tle_line1": "1 30770U 99025AUG 25361.50530593  .00000588  00000+0  32127-3 0  9997",
        "tle_line2": "2 30770  98.6544   7.1274 0012871 240.5667 250.5375 14.15701106971162"
      },
      "geometry": {
        "type": "Point",
        "coordinates": [
          8.585278451462973,
          -8.335152718340192
        ]
      }
    },
    {
      "type": "Feature",
      "properties": {
        "norad_id": 30771,
        "name": "FENGYUN 1C DEB",
        "group": "fengyun-1c-debris",
        "lat": 79.15278030822691,
        "lon": -147.49549818478124,
        "alt_km": 754.4422800158054,
        "timestamp": "2025-12-27T16:33:30.501220+00:00",
        "meta_object_name": "FENGYUN 1C DEB",
        "meta_object_id": "1999-025AUH",
        "meta_epoch": "2025-12-27T09:27:29.420064",
        "meta_mean_motion": 14.43407178,
        "meta_eccentricity": 0.0022029,
        "meta_inclination": 98.9062,
        "meta_ra_of_asc_node": 337.2748,
        "meta_arg_of_pericenter": 255.3613,
        "meta_mean_anomaly": 104.5133,
        "meta_ephemeris_type": 0,
        "meta_classification_type": "U",
        "meta_norad_cat_id": 30771,
        "meta_element_set_no": 999,
        "meta_rev_at_epoch": 97275,
        "meta_bstar": 0.00271,
        "meta_mean_motion_dot": 9.141e-05,
        "meta_mean_motion_ddot": 0,
        "tle_line1": "1 30771U 99025AUH 25361.39409051  .00009141  00000+0  27100-2 0  9997",
        "tle_line2": "2 30771  98.9062 337.2748 0022029 255.3613 104.5133 14.43407178972754"
      },
      "geometry": {
        "type": "Point",
        "coordinates": [
          -147.49549818478124,
          79.15278030822691
        ]
      }
    },
    {
      "type": "Feature",
      "properties": {
        "norad_id": 30802,
        "name": "FENGYUN 1C DEB",
        "group": "fengyun-1c-debris",
        "lat": 5.135763324502676,
        "lon": 87.9660475964,
        "alt_km": 773.0295180620478,
        "timestamp": "2025-12-27T16:33:30.501230+00:00",
        "meta_object_name": "FENGYUN 1C DEB",
        "meta_object_id": "1999-025AUL",
        "meta_epoch": "2025-12-27T05:03:15.700032",
        "meta_mean_motion": 14.32578446,
        "meta_eccentricity": 0.00174865,
        "meta_inclination": 98.8365,
        "meta_ra_of_asc_node": 88.2787,
        "meta_arg_of_pericenter": 356.1462,
        "meta_mean_anomaly": 58.4503,
        "meta_ephemeris_type": 0,
        "meta_classification_type": "U",
        "meta_norad_cat_id": 30802,
        "meta_element_set_no": 999,
        "meta_rev_at_epoch": 97410,
        "meta_bstar": 0.0018384364,
        "meta_mean_motion_dot": 4.955e-05,
        "meta_mean_motion_ddot": 0,
        "tle_line1": "1 30802U 99025AUL 25361.21059838  .00004955  00000+0  18384-2 0  9999",
        "tle_line2": "2 30802  98.8365  88.2787 0017486 356.1462  58.4503 14.32578446974107"
      },
      "geometry": {
        "type": "Point",
        "coordinates": [
          87.9660475964,
          5.135763324502676
        ]
      }
    },
    {
      "type": "Feature",
      "properties": {
        "norad_id": 30803,
        "name": "FENGYUN 1C DEB",
        "group": "fengyun-1c-debris",
        "lat": -80.74245023463031,
        "lon": 127.47938561546603,
        "alt_km": 887.3842571276718,
        "timestamp": "2025-12-27T16:33:30.501240+00:00",
        "meta_object_name": "FENGYUN 1C DEB",
        "meta_object_id": "1999-025AUM",
        "meta_epoch": "2025-12-27T01:59:13.187328",
        "meta_mean_motion": 14.11314091,
        "meta_eccentricity": 0.01075147,
        "meta_inclination": 99.2453,
        "meta_ra_of_asc_node": 34.6871,
        "meta_arg_of_pericenter": 161.8555,
        "meta_mean_anomaly": 263.5842,
        "meta_ephemeris_type": 0,
        "meta_classification_type": "U",
        "meta_norad_cat_id": 30803,
        "meta_element_set_no": 999,
        "meta_rev_at_epoch": 96201,
        "meta_bstar": 0.0013085146,
        "meta_mean_motion_dot": 2.451e-05,
        "meta_mean_motion_ddot": 0,
        "tle_line1": "1 30803U 99025AUM 25361.08279152  .00002451  00000+0  13085-2 0  9990",
        "tle_line2": "2 30803  99.2453  34.6871 0107514 161.8555 263.5842 14.11314091962019"
      },
      "geometry": {
        "type": "Point",
        "coordinates": [
          127.47938561546603,
          -80.74245023463031
        ]
      }
    },
    {
      "type": "Feature",
      "properties": {
        "norad_id": 30804,
        "name": "FENGYUN 1C DEB",
        "group": "fengyun-1c-debris",
        "lat": 71.7963386494489,
        "lon": -83.49134951748621,
        "alt_km": 600.5657069429508,
        "timestamp": "2025-12-27T16:33:30.501250+00:00",
        "meta_object_name": "FENGYUN 1C DEB",
        "meta_object_id": "1999-025AUN",
        "meta_epoch": "2025-12-26T10:25:49.148832",
        "meta_mean_motion": 14.54674358,
        "meta_eccentricity": 0.0185992,
        "meta_inclination": 98.8932,
        "meta_ra_of_asc_node": 66.7407,
        "meta_arg_of_pericenter": 149.1061,
        "meta_mean_anomaly": 227.9426,
        "meta_ephemeris_type": 0,
        "meta_classification_type": "U",
        "meta_norad_cat_id": 30804,
        "meta_element_set_no": 999,
        "meta_rev_at_epoch": 99676,
        "meta_bstar": 0.00043608,
        "meta_mean_motion_dot": 2.29e-05,
        "meta_mean_motion_ddot": 0,
        "tle_line1": "1 30804U 99025AUN 25360.43459663  .00002290  00000+0  43608-3 0  9992",
        "tle_line2": "2 30804  98.8932  66.7407 0185992 149.1061 227.9426 14.54674358996768"
      },
      "geometry": {
        "type": "Point",
        "coordinates": [
          -83.49134951748621,
          71.7963386494489
        ]
      }
    },
    {
      "type": "Feature",
      "properties": {
        "norad_id": 30805,
        "name": "FENGYUN 1C DEB",
        "group": "fengyun-1c-debris",
        "lat": -3.5014046645688173,
        "lon": 44.427817736149095,
        "alt_km": 907.9702243774527,
        "timestamp": "2025-12-27T16:33:30.501260+00:00",
        "meta_object_name": "FENGYUN 1C DEB",
        "meta_object_id": "1999-025AUP",
        "meta_epoch": "2025-12-26T01:20:58.344576",
        "meta_mean_motion": 14.0293342,
        "meta_eccentricity": 0.00707271,
        "meta_inclination": 98.8198,
        "meta_ra_of_asc_node": 42.3008,
        "meta_arg_of_pericenter": 246.6314,
        "meta_mean_anomaly": 142.6198,
        "meta_ephemeris_type": 0,
        "meta_classification_type": "U",
        "meta_norad_cat_id": 30805,
        "meta_element_set_no": 999,
        "meta_rev_at_epoch": 96147,
        "meta_bstar": 0.001016474,
        "meta_mean_motion_dot": 1.568e-05,
        "meta_mean_motion_ddot": 0,
        "tle_line1": "1 30805U 99025AUP 25360.05623084  .00001568  00000+0  10165-2 0  9999",
        "tle_line2": "2 30805  98.8198  42.3008 0070727 246.6314 142.6198 14.02933420961473"
      },
      "geometry": {
        "type": "Point",
        "coordinates": [
          44.427817736149095,
          -3.5014046645688173
        ]
      }
    }
  ]
}